[
    {
        "Altitude(m)": 555978.2059945166,
        "Argument of Periapsis(deg)": 0.019868973332140504,
        "Eccentricity": 0.0,
        "Inclination(deg)": 53.0,
        "Latitude(deg)": 35.223523489834655,
        "Longitude(deg)": -149.32666663073633,
        "Mean Anomaly(deg)": 133.91117860273275,
        "RAAN(deg)": 164.97043010558406,
        "Satellite Name": "Starlink Shell 1 732",
        "Satellite Number": 732,
        "Semi-Major Axis(m)": 6931778.249405717,
        "Time(s)": 570
    },
    {
        "Altitude(m)": 555896.5329887014,
        "Argument of Periapsis(deg)": 0.02021755181165174,
        "Eccentricity": 0.0,
        "Inclination(deg)": 53.0,
        "Latitude(deg)": 34.79587841290163,
        "Longitude(deg)": -148.80765849140923,
        "Mean Anomaly(deg)": 134.5380098062895,
        "RAAN(deg)": 164.96991133550654,
        "Satellite Name": "Starlink Shell 1 732",
        "Satellite Number": 732,
        "Semi-Major Axis(m)": 6931778.249405717,
        "Time(s)": 580
    },
    {
        "Altitude(m)": 555815.3243311559,
        "Argument of Periapsis(deg)": 0.020566130291162974,
        "Eccentricity": 0.0,
        "Inclination(deg)": 53.0,
        "Latitude(deg)": 34.36565008921895,
        "Longitude(deg)": -148.29441778357406,
        "Mean Anomaly(deg)": 135.1648410098462,
        "RAAN(deg)": 164.9693925654291,
        "Satellite Name": "Starlink Shell 1 732",
        "Satellite Number": 732,
        "Semi-Major Axis(m)": 6931778.249405717,
        "Time(s)": 590
    },
    {
        "Altitude(m)": 555734.635706631,
        "Argument of Periapsis(deg)": 0.020914708770674213,
        "Eccentricity": 0.0,
        "Inclination(deg)": 53.0,
        "Latitude(deg)": 33.932904505051,
        "Longitude(deg)": -147.7868277603839,
        "Mean Anomaly(deg)": 135.79167221340288,
        "RAAN(deg)": 164.96887379535164,
        "Satellite Name": "Starlink Shell 1 732",
        "Satellite Number": 732,
        "Semi-Major Axis(m)": 6931778.249405717,
        "Time(s)": 600
    },
    {
        "Altitude(m)": 555654.5227423575,
        "Argument of Periapsis(deg)": 0.021263287250185448,
        "Eccentricity": 0.0,
        "Inclination(deg)": 53.0,
        "Latitude(deg)": 33.49770615687755,
        "Longitude(deg)": -147.28477256498527,
        "Mean Anomaly(deg)": 136.41850341695957,
        "RAAN(deg)": 164.96835502527415,
        "Satellite Name": "Starlink Shell 1 732",
        "Satellite Number": 732,
        "Semi-Major Axis(m)": 6931778.249405717,
        "Time(s)": 610
    },
    {
        "Altitude(m)": 555575.0409791982,
        "Argument of Periapsis(deg)": 0.021611865729696686,
        "Eccentricity": 0.0,
        "Inclination(deg)": 53.0,
        "Latitude(deg)": 33.06011808394805,
        "Longitude(deg)": -146.78813679606182,
        "Mean Anomaly(deg)": 137.0453346205163,
        "RAAN(deg)": 164.96783625519666,
        "Satellite Name": "Starlink Shell 1 732",
        "Satellite Number": 732,
        "Semi-Major Axis(m)": 6931778.249405717,
        "Time(s)": 620
    },
    {
        "Altitude(m)": 555496.2458427995,
        "Argument of Periapsis(deg)": 0.02196044420920792,
        "Eccentricity": 0.0,
        "Inclination(deg)": 53.0,
        "Latitude(deg)": 32.62020190106734,
        "Longitude(deg)": -146.29680674665096,
        "Mean Anomaly(deg)": 137.67216582407306,
        "RAAN(deg)": 164.96731748511922,
        "Satellite Name": "Starlink Shell 1 732",
        "Satellite Number": 732,
        "Semi-Major Axis(m)": 6931778.249405717,
        "Time(s)": 630
    },
    {
        "Altitude(m)": 555418.1926147665,
        "Argument of Periapsis(deg)": 0.02230902268871916,
        "Eccentricity": 0.0,
        "Inclination(deg)": 53.0,
        "Latitude(deg)": 32.17801783151204,
        "Longitude(deg)": -145.81066911429403,
        "Mean Anomaly(deg)": 138.29899702762975,
        "RAAN(deg)": 164.9667987150417,
        "Satellite Name": "Starlink Shell 1 732",
        "Satellite Number": 732,
        "Semi-Major Axis(m)": 6931778.249405717,
        "Time(s)": 640
    },
    {
        "Altitude(m)": 555340.9364038364,
        "Argument of Periapsis(deg)": 0.022657601168230398,
        "Eccentricity": 0.0,
        "Inclination(deg)": 53.0,
        "Latitude(deg)": 31.733624739998586,
        "Longitude(deg)": -145.32961222589222,
        "Mean Anomaly(deg)": 138.9258282311865,
        "RAAN(deg)": 164.96627994496427,
        "Satellite Name": "Starlink Shell 1 732",
        "Satellite Number": 732,
        "Semi-Major Axis(m)": 6931778.249405717,
        "Time(s)": 650
    },
    {
        "Altitude(m)": 555264.5321171201,
        "Argument of Periapsis(deg)": 0.023006179647741636,
        "Eccentricity": 0.0,
        "Inclination(deg)": 53.0,
        "Latitude(deg)": 31.287080165619837,
        "Longitude(deg)": -144.85352557528913,
        "Mean Anomaly(deg)": 139.55265943474316,
        "RAAN(deg)": 164.96576117488678,
        "Satellite Name": "Starlink Shell 1 732",
        "Satellite Number": 732,
        "Semi-Major Axis(m)": 6931778.249405717,
        "Time(s)": 660
    },
    {
        "Altitude(m)": 555189.0344313763,
        "Argument of Periapsis(deg)": 0.023354758127252868,
        "Eccentricity": 0.0,
        "Inclination(deg)": 53.0,
        "Latitude(deg)": 30.83844035467995,
        "Longitude(deg)": -144.38229935496904,
        "Mean Anomaly(deg)": 140.1794906382999,
        "RAAN(deg)": 164.96524240480932,
        "Satellite Name": "Starlink Shell 1 732",
        "Satellite Number": 732,
        "Semi-Major Axis(m)": 6931778.249405717,
        "Time(s)": 670
    },
    {
        "Altitude(m)": 555114.4977643734,
        "Argument of Periapsis(deg)": 0.023703336606764106,
        "Eccentricity": 0.0,
        "Inclination(deg)": 53.0,
        "Latitude(deg)": 30.387760293370302,
        "Longitude(deg)": -143.91582549515007,
        "Mean Anomaly(deg)": 140.8063218418566,
        "RAAN(deg)": 164.96472363473183,
        "Satellite Name": "Starlink Shell 1 732",
        "Satellite Number": 732,
        "Semi-Major Axis(m)": 6931778.249405717,
        "Time(s)": 680
    },
    {
        "Altitude(m)": 555040.9762463066,
        "Argument of Periapsis(deg)": 0.024051915086275345,
        "Eccentricity": 0.0,
        "Inclination(deg)": 53.0,
        "Latitude(deg)": 29.93509374022183,
        "Longitude(deg)": -143.45399718490654,
        "Mean Anomaly(deg)": 141.43315304541335,
        "RAAN(deg)": 164.9642048646544,
        "Satellite Name": "Starlink Shell 1 732",
        "Satellite Number": 732,
        "Semi-Major Axis(m)": 6931778.249405717,
        "Time(s)": 690
    },
    {
        "Altitude(m)": 554968.5236913445,
        "Argument of Periapsis(deg)": 0.024400493565786583,
        "Eccentricity": 0.0,
        "Inclination(deg)": 53.0,
        "Latitude(deg)": 29.480493258288483,
        "Longitude(deg)": -142.9967083885572,
        "Mean Anomaly(deg)": 142.0599842489701,
        "RAAN(deg)": 164.96368609457687,
        "Satellite Name": "Starlink Shell 1 732",
        "Satellite Number": 732,
        "Semi-Major Axis(m)": 6931778.249405717,
        "Time(s)": 700
    },
    {
        "Altitude(m)": 554897.1935692655,
        "Argument of Periapsis(deg)": 0.024749072045297815,
        "Eccentricity": 0.0,
        "Inclination(deg)": 53.0,
        "Latitude(deg)": 29.02401024701879,
        "Longitude(deg)": -142.5438548705364,
        "Mean Anomaly(deg)": 142.68681545252676,
        "RAAN(deg)": 164.96316732449944,
        "Satellite Name": "Starlink Shell 1 732",
        "Satellite Number": 732,
        "Semi-Major Axis(m)": 6931778.249405717,
        "Time(s)": 710
    },
    {
        "Altitude(m)": 554827.0389772146,
        "Argument of Periapsis(deg)": 0.025097650524809053,
        "Eccentricity": 0.0,
        "Inclination(deg)": 53.0,
        "Latitude(deg)": 28.56569497377099,
        "Longitude(deg)": -142.09533370332434,
        "Mean Anomaly(deg)": 143.31364665608348,
        "RAAN(deg)": 164.96264855442195,
        "Satellite Name": "Starlink Shell 1 732",
        "Satellite Number": 732,
        "Semi-Major Axis(m)": 6931778.249405717,
        "Time(s)": 720
    },
    {
        "Altitude(m)": 554758.1126116331,
        "Argument of Periapsis(deg)": 0.02544622900432029,
        "Eccentricity": 0.0,
        "Inclination(deg)": 53.0,
        "Latitude(deg)": 28.105596604941958,
        "Longitude(deg)": -141.65104277162035,
        "Mean Anomaly(deg)": 143.94047785964017,
        "RAAN(deg)": 164.96212978434448,
        "Satellite Name": "Starlink Shell 1 732",
        "Satellite Number": 732,
        "Semi-Major Axis(m)": 6931778.249405717,
        "Time(s)": 730
    },
    {
        "Altitude(m)": 554690.4667403084,
        "Argument of Periapsis(deg)": 0.02579480748383153,
        "Eccentricity": 0.0,
        "Inclination(deg)": 53.0,
        "Latitude(deg)": 27.643763236680215,
        "Longitude(deg)": -141.21088178591566,
        "Mean Anomaly(deg)": 144.56730906319694,
        "RAAN(deg)": 164.961611014267,
        "Satellite Name": "Starlink Shell 1 732",
        "Satellite Number": 732,
        "Semi-Major Axis(m)": 6931778.249405717,
        "Time(s)": 740
    },
    {
        "Altitude(m)": 554624.1531746116,
        "Argument of Periapsis(deg)": 0.026143385963342765,
        "Eccentricity": 0.0,
        "Inclination(deg)": 53.0,
        "Latitude(deg)": 27.180241925155077,
        "Longitude(deg)": -140.77475177999563,
        "Mean Anomaly(deg)": 145.19414026675366,
        "RAAN(deg)": 164.96109224418956,
        "Satellite Name": "Starlink Shell 1 732",
        "Satellite Number": 732,
        "Semi-Major Axis(m)": 6931778.249405717,
        "Time(s)": 750
    }
]